SONATE-2                
1 59112U 24043Q   24366.58927002  .00029721  00000+0  10983-2 0  9998
2 59112  97.4962 129.7349 0012171 325.6266  34.4184 15.27610234 45840
MESAT1                  
1 60209U 24125G   24366.82857375  .00034743  00000+0  12693-2 0  9990
2 60209  97.2957 214.9372 0022799 352.6491   7.4411 15.27772219 27497
OOV-CUBE (TUBSAT-30)    
1 60240U 24128F   24366.75493607  .00008451  00000+0  70944-3 0  9995
2 60240  61.9981 276.8257 0031891  14.7576 345.4436 14.98608346 26193
COLIBRI-S (RS67S)       
1 61746U 24199M   25001.11778472  .00030479  00000+0  11713-2 0  9991
2 61746  97.3797 231.1604 0015442  35.0771 325.1482 15.26262952 55717
HORS 3 (RS81S)          
1 61753U 24199U   24366.92306706  .00033918  00000+0  13001-2 0  9991
2 61753  97.3770 230.9447 0014150  42.7746 317.4591 15.26343054 55684
HORS 4 (RS82S)          
1 61754U 24199V   24366.91715101  .00035890  00000+0  13640-2 0  9994
2 61754  97.3770 230.9518 0014352  42.7180 317.5171 15.26611604 55684
HORIZON (RS59S)         
1 61757U 24199Y   24366.90233138  .00043052  00000+0  16025-2 0  9990
2 61757  97.3798 230.9898 0015421  33.8025 326.4194 15.27243284 55685
SIT-2086                
1 61764U 24199AF  25001.09275538  .00036969  00000+0  13779-2 0  9997
2 61764  97.3773 231.1750 0012653  43.5600 316.6636 15.27272105 52556
MORDOVIA-IOT (RS50S)    
1 61765U 24199AG  24366.94281560  .00051213  00000+0  18428-2 0  9992
2 61765  97.3796 231.0882 0015181  30.9238 329.2892 15.28318214 52549
RUZAEVKA 390 (RS44S)    
1 61766U 24199AH  24366.87969235  .00047205  00000+0  17102-2 0  9991
2 61766  97.3795 231.0175 0014958  30.8827 329.3289 15.28118602 52537
HYPERVIEW 1G (RS66S)    
1 61772U 24199AP  24366.94191220  .00037985  00000+0  14612-2 0  9994
2 61772  97.3769 230.9184 0018389  44.4829 315.7883 15.26133893 52534
ALTAIR (RS65S)          
1 61779U 24199AW  24366.90425458  .00019091  00000+0  77111-3 0  9992
2 61779  97.3778 230.8202 0018636  45.8000 314.4765 15.24644622 55670
ASRTU-1 (AO-123)        
1 61781U 24199AY  24366.91129152  .00021195  00000+0  86101-3 0  9995
2 61781  97.3777 230.8117 0018810  45.7649 314.5129 15.24427321 52520
TUSUR GO (RS78S)        
1 61782U 24199AZ  24366.88921431  .00039282  00000+0  15260-2 0  9995
2 61782  97.3773 230.8387 0019680  44.1552 316.1253 15.25775977 52528
SAMSAT-IONOSPHERE (RS7*)
1 61784U 24199BB  24366.89385188  .00034040  00000+0  13366-2 0  9993
2 61784  97.3774 230.8319 0019419  44.8951 315.3853 15.25456622 55675
RTU MIREA 1 (RS51S)     
1 61785U 24199BC  24366.89248563  .00035180  00000+0  13779-2 0  9993
2 61785  97.3773 230.8340 0019323  44.3940 315.8843 15.25534348 52523
